TEVEL2-1                
1 63217U 25052H   26068.64782323  .00020683  00000+0  70600-3 0  9994
2 63217  97.3991 324.7682 0004767 104.8919 255.2849 15.30341923 54855
STARLINK-36045          
1 66811U 25278W   26068.46201342  .00033175  00000+0  12094-2 0  9996
2 66811  43.0003 115.7060 0001866 259.8192 100.2449 15.27586217 15179
